start=new Date('2023-02-04T00:00:00.000Z').valueOf();
sats=[{"DECAY_DATE":null,"MEAN_ANOMALY":"270.5207","CLASSIFICATION_TYPE":"U","ELEMENT_SET_NO":"999","FILE":"3770323","RCS_SIZE":"LARGE","MEAN_MOTION_DOT":"0.00000016","TLE_LINE2":"2 45553  53.0516 121.4576 0001353  89.5937 270.5207 15.06390921153696","SEMIMAJOR_AXIS":"6925.376","PERIOD":"95.593","RA_OF_ASC_NODE":"121.4576","REF_FRAME":"TEME","EPHEMERIS_TYPE":"0","TLE_LINE1":"1 45553U 20025Y   23034.22922082  .00000016  00000-0  19986-4 0  9994","OBJECT_NAME":"STARLINK-1323","APOAPSIS":"548.178","MEAN_MOTION_DDOT":"0.0000000000000","MEAN_MOTION":"15.06390921","PERIAPSIS":"546.304","CENTER_NAME":"EARTH","EPOCH":"2023-02-03T05:30:04.678848","GP_ID":"224308977","MEAN_ELEMENT_THEORY":"SGP4","SITE":"AFETR","COUNTRY_CODE":"US","ARG_OF_PERICENTER":"89.5937","LAUNCH_DATE":"2020-04-22","REV_AT_EPOCH":"15369","INCLINATION":"53.0516","BSTAR":"0.00001998600000","OBJECT_ID":"2020-025Y","OBJECT_TYPE":"PAYLOAD","ECCENTRICITY":"0.00013530","TIME_SYSTEM":"UTC","NORAD_CAT_ID":"45553"},{"FILE":"3770323","ELEMENT_SET_NO":"999","MEAN_MOTION_DOT":"0.00000051","RCS_SIZE":"LARGE","SEMIMAJOR_AXIS":"6925.382","TLE_LINE2":"2 45554  53.0536 120.8923 0001192  96.0272 264.0853 15.06389040155006","DECAY_DATE":null,"MEAN_ANOMALY":"264.0853","CLASSIFICATION_TYPE":"U","REF_FRAME":"TEME","TLE_LINE1":"1 45554U 20025Z   23034.35360084  .00000051  00000-0  22291-4 0  9999","EPHEMERIS_TYPE":"0","APOAPSIS":"548.073","OBJECT_NAME":"STARLINK-1325","PERIOD":"95.593","RA_OF_ASC_NODE":"120.8923","GP_ID":"224309228","MEAN_ELEMENT_THEORY":"SGP4","SITE":"AFETR","EPOCH":"2023-02-03T08:29:11.112576","COUNTRY_CODE":"US","MEAN_MOTION_DDOT":"0.0000000000000","MEAN_MOTION":"15.06389040","CENTER_NAME":"EARTH","PERIAPSIS":"546.422","ECCENTRICITY":"0.00011920","TIME_SYSTEM":"UTC","NORAD_CAT_ID":"45554","ARG_OF_PERICENTER":"96.0272","LAUNCH_DATE":"2020-04-22","REV_AT_EPOCH":"15500","BSTAR":"0.00002229100000","INCLINATION":"53.0536","OBJECT_TYPE":"PAYLOAD","OBJECT_ID":"2020-025Z"},{"MEAN_ANOMALY":"246.2027","CLASSIFICATION_TYPE":"U","DECAY_DATE":null,"MEAN_MOTION_DOT":"0.00000536","RCS_SIZE":"LARGE","SEMIMAJOR_AXIS":"6925.365","TLE_LINE2":"2 45555  53.0524 119.5652 0001374 113.9106 246.2027 15.06394608155040","FILE":"3770748","ELEMENT_SET_NO":"999","RA_OF_ASC_NODE":"119.5652","PERIOD":"95.592","OBJECT_NAME":"STARLINK-1327","APOAPSIS":"548.182","REF_FRAME":"TEME","TLE_LINE1":"1 45555U 20025AA  23034.64941495  .00000536  00000-0  54865-4 0  9993","EPHEMERIS_TYPE":"0","CENTER_NAME":"EARTH","PERIAPSIS":"546.279","MEAN_MOTION_DDOT":"0.0000000000000","MEAN_MOTION":"15.06394608","COUNTRY_CODE":"US","MEAN_ELEMENT_THEORY":"SGP4","GP_ID":"224343232","SITE":"AFETR","EPOCH":"2023-02-03T15:35:09.451680","BSTAR":"0.00005486500000","INCLINATION":"53.0524","OBJECT_ID":"2020-025AA","OBJECT_TYPE":"PAYLOAD","ARG_OF_PERICENTER":"113.9106","LAUNCH_DATE":"2020-04-22","REV_AT_EPOCH":"15504","TIME_SYSTEM":"UTC","NORAD_CAT_ID":"45555","ECCENTRICITY":"0.00013740"},{"DECAY_DATE":null,"CLASSIFICATION_TYPE":"U","MEAN_ANOMALY":"270.4637","FILE":"3770323","ELEMENT_SET_NO":"999","SEMIMAJOR_AXIS":"6925.378","TLE_LINE2":"2 45556  53.0546 121.1699 0001306  89.6501 270.4637 15.06390480154991","MEAN_MOTION_DOT":"0.00000258","RCS_SIZE":"LARGE","PERIOD":"95.593","RA_OF_ASC_NODE":"121.1699","TLE_LINE1":"1 45556U 20025AB  23034.29188595  .00000258  00000-0  36228-4 0  9993","EPHEMERIS_TYPE":"0","REF_FRAME":"TEME","APOAPSIS":"548.147","OBJECT_NAME":"STARLINK-1334","MEAN_MOTION":"15.06390480","MEAN_MOTION_DDOT":"0.0000000000000","CENTER_NAME":"EARTH","PERIAPSIS":"546.338","GP_ID":"224308227","SITE":"AFETR","MEAN_ELEMENT_THEORY":"SGP4","EPOCH":"2023-02-03T07:00:18.946080","COUNTRY_CODE":"US","REV_AT_EPOCH":"15499","LAUNCH_DATE":"2020-04-22","ARG_OF_PERICENTER":"89.6501","OBJECT_TYPE":"PAYLOAD","OBJECT_ID":"2020-025AB","BSTAR":"0.00003622800000","INCLINATION":"53.0546","ECCENTRICITY":"0.00013060","NORAD_CAT_ID":"45556","TIME_SYSTEM":"UTC"},{"EPHEMERIS_TYPE":"0","TLE_LINE1":"1 45557U 20025AC  23034.63098690  .00000264  00000-0  36624-4 0  9995","REF_FRAME":"TEME","APOAPSIS":"548.171","OBJECT_NAME":"STARLINK-1336","PERIOD":"95.592","RA_OF_ASC_NODE":"119.6452","ELEMENT_SET_NO":"999","FILE":"3770748","TLE_LINE2":"2 45557  53.0541 119.6452 0001372  88.0820 272.0326 15.06397737155048","SEMIMAJOR_AXIS":"6925.355","RCS_SIZE":"LARGE","MEAN_MOTION_DOT":"0.00000264","DECAY_DATE":null,"CLASSIFICATION_TYPE":"U","MEAN_ANOMALY":"272.0326","ECCENTRICITY":"0.00013720","NORAD_CAT_ID":"45557","TIME_SYSTEM":"UTC","REV_AT_EPOCH":"15504","ARG_OF_PERICENTER":"88.0820","LAUNCH_DATE":"2020-04-22","OBJECT_TYPE":"PAYLOAD","OBJECT_ID":"2020-025AC","INCLINATION":"53.0541","BSTAR":"0.00003662400000","EPOCH":"2023-02-03T15:08:37.268160","SITE":"AFETR","GP_ID":"224344732","MEAN_ELEMENT_THEORY":"SGP4","COUNTRY_CODE":"US","MEAN_MOTION":"15.06397737","MEAN_MOTION_DDOT":"0.0000000000000","PERIAPSIS":"546.270","CENTER_NAME":"EARTH"},{"EPHEMERIS_TYPE":"0","TLE_LINE1":"1 45558U 20025AD  23034.59781308 -.00000511  00000-0 -15443-4 0  9999","REF_FRAME":"TEME","APOAPSIS":"548.124","OBJECT_NAME":"STARLINK-1342","PERIOD":"95.592","RA_OF_ASC_NODE":"119.7981","ELEMENT_SET_NO":"999","FILE":"3770323","TLE_LINE2":"2 45558  53.0537 119.7981 0001301  92.6346 267.4792 15.06396816155039","SEMIMAJOR_AXIS":"6925.358","RCS_SIZE":"LARGE","MEAN_MOTION_DOT":"-0.00000511","DECAY_DATE":null,"CLASSIFICATION_TYPE":"U","MEAN_ANOMALY":"267.4792","ECCENTRICITY":"0.00013010","NORAD_CAT_ID":"45558","TIME_SYSTEM":"UTC","REV_AT_EPOCH":"15503","ARG_OF_PERICENTER":"92.6346","LAUNCH_DATE":"2020-04-22","OBJECT_TYPE":"PAYLOAD","OBJECT_ID":"2020-025AD","INCLINATION":"53.0537","BSTAR":"-0.00001544300000","EPOCH":"2023-02-03T14:20:51.050112","MEAN_ELEMENT_THEORY":"SGP4","GP_ID":"224309728","SITE":"AFETR","COUNTRY_CODE":"US","MEAN_MOTION":"15.06396816","MEAN_MOTION_DDOT":"0.0000000000000","PERIAPSIS":"546.322","CENTER_NAME":"EARTH"},{"FILE":"3770323","ELEMENT_SET_NO":"999","MEAN_MOTION_DOT":"0.00001530","RCS_SIZE":"LARGE","SEMIMAJOR_AXIS":"6925.372","TLE_LINE2":"2 45559  53.0563 121.3888 0001378  86.0974 274.0172 15.06392281154983","DECAY_DATE":null,"MEAN_ANOMALY":"274.0172","CLASSIFICATION_TYPE":"U","REF_FRAME":"TEME","TLE_LINE1":"1 45559U 20025AE  23034.23195874  .00001530  00000-0  12158-3 0  9997","EPHEMERIS_TYPE":"0","OBJECT_NAME":"STARLINK-1344","APOAPSIS":"548.192","PERIOD":"95.593","RA_OF_ASC_NODE":"121.3888","SITE":"AFETR","GP_ID":"224308476","MEAN_ELEMENT_THEORY":"SGP4","EPOCH":"2023-02-03T05:34:01.235136","COUNTRY_CODE":"US","MEAN_MOTION_DDOT":"0.0000000000000","MEAN_MOTION":"15.06392281","CENTER_NAME":"EARTH","PERIAPSIS":"546.283","ECCENTRICITY":"0.00013780","TIME_SYSTEM":"UTC","NORAD_CAT_ID":"45559","LAUNCH_DATE":"2020-04-22","ARG_OF_PERICENTER":"86.0974","REV_AT_EPOCH":"15498","BSTAR":"0.00012158000000","INCLINATION":"53.0563","OBJECT_TYPE":"PAYLOAD","OBJECT_ID":"2020-025AE"},{"DECAY_DATE":null,"CLASSIFICATION_TYPE":"U","MEAN_ANOMALY":"258.6795","FILE":"3770748","ELEMENT_SET_NO":"999","SEMIMAJOR_AXIS":"6925.355","TLE_LINE2":"2 45560  53.0522 109.6943 0001410 101.4353 258.6795 15.06397929155187","MEAN_MOTION_DOT":"-0.00000879","RCS_SIZE":"LARGE","PERIOD":"95.592","RA_OF_ASC_NODE":"109.6943","TLE_LINE1":"1 45560U 20025AF  23034.61990530 -.00000879  00000-0 -40123-4 0  9994","EPHEMERIS_TYPE":"0","REF_FRAME":"TEME","APOAPSIS":"548.196","OBJECT_NAME":"STARLINK-1346","MEAN_MOTION":"15.06397929","MEAN_MOTION_DDOT":"0.0000000000000","CENTER_NAME":"EARTH","PERIAPSIS":"546.243","GP_ID":"224343981","MEAN_ELEMENT_THEORY":"SGP4","SITE":"AFETR","EPOCH":"2023-02-03T14:52:39.817920","COUNTRY_CODE":"US","REV_AT_EPOCH":"15518","LAUNCH_DATE":"2020-04-22","ARG_OF_PERICENTER":"101.4353","OBJECT_TYPE":"PAYLOAD","OBJECT_ID":"2020-025AF","BSTAR":"-0.00004012300000","INCLINATION":"53.0522","ECCENTRICITY":"0.00014100","NORAD_CAT_ID":"45560","TIME_SYSTEM":"UTC"},{"MEAN_MOTION":"15.29417750","MEAN_MOTION_DDOT":"0.0000000000000","CENTER_NAME":"EARTH","PERIAPSIS":"474.459","MEAN_ELEMENT_THEORY":"SGP4","GP_ID":"224308978","SITE":"AFETR","EPOCH":"2023-02-03T08:33:11.556000","COUNTRY_CODE":"US","REV_AT_EPOCH":"15657","LAUNCH_DATE":"2020-04-22","ARG_OF_PERICENTER":"130.7432","OBJECT_TYPE":"PAYLOAD","OBJECT_ID":"2020-025AG","BSTAR":"0.00226880000000","INCLINATION":"53.0648","ECCENTRICITY":"0.00045140","NORAD_CAT_ID":"45561","TIME_SYSTEM":"UTC","DECAY_DATE":null,"CLASSIFICATION_TYPE":"U","MEAN_ANOMALY":"229.3959","FILE":"3770323","ELEMENT_SET_NO":"999","SEMIMAJOR_AXIS":"6855.689","TLE_LINE2":"2 45561  53.0648   9.6470 0004514 130.7432 229.3959 15.29417750156573","MEAN_MOTION_DOT":"0.00065837","RCS_SIZE":"LARGE","PERIOD":"94.153","RA_OF_ASC_NODE":"9.6470","TLE_LINE1":"1 45561U 20025AG  23034.35638375  .00065837  00000-0  22688-2 0  9999","EPHEMERIS_TYPE":"0","REF_FRAME":"TEME","OBJECT_NAME":"STARLINK-1348","APOAPSIS":"480.648"},{"OBJECT_TYPE":"PAYLOAD","OBJECT_ID":"2020-025AH","INCLINATION":"53.0565","BSTAR":"0.00000101870000","REV_AT_EPOCH":"15500","ARG_OF_PERICENTER":"84.8595","LAUNCH_DATE":"2020-04-22","NORAD_CAT_ID":"45562","TIME_SYSTEM":"UTC","ECCENTRICITY":"0.00010190","PERIAPSIS":"546.522","CENTER_NAME":"EARTH","MEAN_MOTION":"15.06395529","MEAN_MOTION_DDOT":"0.0000000000000","COUNTRY_CODE":"US","EPOCH":"2023-02-03T09:02:22.994592","SITE":"AFETR","GP_ID":"224309229","MEAN_ELEMENT_THEORY":"SGP4","RA_OF_ASC_NODE":"120.7861","PERIOD":"95.592","APOAPSIS":"547.933","OBJECT_NAME":"STARLINK-1354","EPHEMERIS_TYPE":"0","TLE_LINE1":"1 45562U 20025AH  23034.37665503 -.00000266  00000-0  10187-5 0  9995","REF_FRAME":"TEME","CLASSIFICATION_TYPE":"U","MEAN_ANOMALY":"275.2510","DECAY_DATE":null,"TLE_LINE2":"2 45562  53.0565 120.7861 0001019  84.8595 275.2510 15.06395529155001","SEMIMAJOR_AXIS":"6925.362","RCS_SIZE":"LARGE","MEAN_MOTION_DOT":"-0.00000266","ELEMENT_SET_NO":"999","FILE":"3770323"}];
